H1 CPF 01  gfz 2021 11 28 13  8322 terrasarx 
H2 0702601  6201 31698    2021 11 28 12 59 42 2021 12 03 00 00 42   120 1 1  0 0 0
H9
10 0 59550  82062.000000  0    1734953.912  -6206554.371   2427193.228
10 0 59550  82182.000000  0    1460958.570  -5891669.589   3249267.976
10 0 59550  82302.000000  0    1167878.031  -5468828.066   4014135.088
10 0 59550  82422.000000  0     862667.746  -4945169.242   4708344.710
10 0 59550  82542.000000  0     552353.013  -4329722.182   5319703.783
10 0 59550  82662.000000  0     243871.820  -3633240.109   5837489.969
10 0 59550  82782.000000  0     -56075.502  -2868002.092   6252635.629
10 0 59550  82902.000000  0    -341168.026  -2047589.066   6557879.476
10 0 59550  83022.000000  0    -605594.097  -1186639.405   6747886.910
10 0 59550  83142.000000  0    -844167.352   -300586.095   6819338.822
10 0 59550  83262.000000  0   -1052427.118    594621.002   6770986.657
10 0 59550  83382.000000  0   -1226721.304   1482802.091   6603672.620
10 0 59550  83502.000000  0   -1364270.116   2347839.044   6320315.822
10 0 59550  83622.000000  0   -1463210.534   3173967.641   5925864.769
10 0 59550  83742.000000  0   -1522620.767   3946066.185   5427215.828
10 0 59550  83862.000000  0   -1542523.358   4649935.516   4833099.181
10 0 59550  83982.000000  0   -1523868.273   5272566.932   4153932.207
10 0 59550  84102.000000  0   -1468494.804   5802390.821   3401640.571
10 0 59550  84222.000000  0   -1379074.468   6229500.580   2589451.325
10 0 59550  84342.000000  0   -1259036.054   6545848.358   1731659.329
10 0 59550  84462.000000  0   -1112471.127   6745405.621    843370.940
10 0 59550  84582.000000  0    -944025.151   6824283.688    -59768.250
10 0 59550  84702.000000  0    -758776.531   6780813.806   -961856.849
10 0 59550  84822.000000  0    -562105.901   6615581.342  -1847028.856
10 0 59550  84942.000000  0    -359560.251   6331411.154  -2699741.765
10 0 59550  85062.000000  0    -156715.938   5933309.206  -3505053.898
10 0 59550  85182.000000  0      40956.993   5428363.431  -4248887.901
10 0 59550  85302.000000  0     228226.165   4825605.436  -4918275.763
10 0 59550  85422.000000  0     400220.533   4135836.940  -5501580.084
10 0 59550  85542.000000  0     552543.599   3371425.646  -5988688.796
10 0 59550  85662.000000  0     681373.183   2546074.926  -6371180.261
10 0 59550  85782.000000  0     783546.478   1674573.735  -6642457.082
10 0 59550  85902.000000  0     856629.200    772531.872  -6797848.984
10 0 59550  86022.000000  0     898967.284   -143896.475  -6834684.992
10 0 59550  86142.000000  0     909720.969  -1058296.956  -6752334.098
10 0 59550  86262.000000  0     888880.273  -1954281.912  -6552213.021
10 0 59550  86382.000000  0     837262.624  -2815775.231  -6237764.444
99
